[{"OBJECT_NAME":"ONEWEB-0464","OBJECT_ID":"2022-012AF","EPOCH":"2026-03-09T22:06:05.794560","MEAN_MOTION":13.10363898,"ECCENTRICITY":0.00014911,"INCLINATION":87.8783,"RA_OF_ASC_NODE":56.0478,"ARG_OF_PERICENTER":93.1253,"MEAN_ANOMALY":267.0045,"EPHEMERIS_TYPE":0,"CLASSIFICATION_TYPE":"U","NORAD_CAT_ID":51651,"ELEMENT_SET_NO":999,"REV_AT_EPOCH":19632,"BSTAR":0.0033960505,"MEAN_MOTION_DOT":1.198e-5,"MEAN_MOTION_DDOT":0},{"OBJECT_NAME":"COSMOS 1275 DEB","OBJECT_ID":"1981-053NW","EPOCH":"2026-02-22T18:50:45.887712","MEAN_MOTION":13.46707162,"ECCENTRICITY":0.02388501,"INCLINATION":83.1403,"RA_OF_ASC_NODE":255.1438,"ARG_OF_PERICENTER":335.1962,"MEAN_ANOMALY":23.7843,"EPHEMERIS_TYPE":0,"CLASSIFICATION_TYPE":"U","NORAD_CAT_ID":39960,"ELEMENT_SET_NO":999,"REV_AT_EPOCH":55677,"BSTAR":0.00066964867,"MEAN_MOTION_DOT":4.93e-6,"MEAN_MOTION_DDOT":0}]
